[{"OBJECT_NAME":"STARLINK-3257","OBJECT_ID":"2021-125AZ","EPOCH":"2026-03-09T22:54:59.277600","MEAN_MOTION":15.08839458,"ECCENTRICITY":0.00014259,"INCLINATION":53.2162,"RA_OF_ASC_NODE":238.0174,"ARG_OF_PERICENTER":89.8906,"MEAN_ANOMALY":270.225,"EPHEMERIS_TYPE":0,"CLASSIFICATION_TYPE":"U","NORAD_CAT_ID":50203,"ELEMENT_SET_NO":999,"REV_AT_EPOCH":23683,"BSTAR":-1.6284709e-5,"MEAN_MOTION_DOT":-5.47e-6,"MEAN_MOTION_DDOT":0},{"OBJECT_NAME":"TITAN 3C TRANSTAGE DEB","OBJECT_ID":"1965-082EA","EPOCH":"2026-03-09T23:10:17.723424","MEAN_MOTION":15.08375165,"ECCENTRICITY":0.00122709,"INCLINATION":32.3951,"RA_OF_ASC_NODE":291.2548,"ARG_OF_PERICENTER":351.0252,"MEAN_ANOMALY":9.0191,"EPHEMERIS_TYPE":0,"CLASSIFICATION_TYPE":"U","NORAD_CAT_ID":1835,"ELEMENT_SET_NO":999,"REV_AT_EPOCH":23237,"BSTAR":0.00035954995,"MEAN_MOTION_DOT":5.778e-5,"MEAN_MOTION_DDOT":0}]
